{"type": "FeatureCollection", "features": [ {"type": "Feature", "properties": {"norad_id": 52912, "name": "GAOFEN-12 03", "group": "resource", "lat": 79.78523868088922, "lon": -168.0914068773832, "alt_km": 621.9215295811991, "timestamp": "2025-12-20T16:47:35.949296+00:00", "meta": {"OBJECT_NAME": "GAOFEN-12 03", "OBJECT_ID": "2022-069A", "EPOCH": "2025-12-20T13:10:18.060960", "MEAN_MOTION": 14.79625495, "ECCENTRICITY": 0.0001998, "INCLINATION": 97.849, "RA_OF_ASC_NODE": 241.7168, "ARG_OF_PERICENTER": 53.3341, "MEAN_ANOMALY": 306.8054, "EPHEMERIS_TYPE": 0, "CLASSIFICATION_TYPE": "U", "NORAD_CAT_ID": 52912, "ELEMENT_SET_NO": 999, "REV_AT_EPOCH": 18819, "BSTAR": 7.3822e-05, "MEAN_MOTION_DOT": 5.03e-06, "MEAN_MOTION_DDOT": 0}, "tle": {"line1": "1 52912U 22069A   25354.54882015  .00000503  00000+0  73822-4 0  9993", "line2": "2 52912  97.8490 241.7168 0001998  53.3341 306.8054 14.79625495188198"}}, "geometry": {"type": "Point", "coordinates": [-168.0914068773832, 79.78523868088922]}}, {"type": "Feature", "properties": {"norad_id": 54754, "name": "SWOT", "group": "resource", "lat": -49.61523688979645, "lon": -98.73055417520548, "alt_km": 900.1084453268677, "timestamp": "2025-12-20T16:47:35.949306+00:00", "meta": {"OBJECT_NAME": "SWOT", "OBJECT_ID": "2022-173A", "EPOCH": "2025-12-20T08:27:47.231136", "MEAN_MOTION": 14.00167948, "ECCENTRICITY": 3.52e-05, "INCLINATION": 77.6109, "RA_OF_ASC_NODE": 276.7133, "ARG_OF_PERICENTER": 91.6129, "MEAN_ANOMALY": 268.5063, "EPHEMERIS_TYPE": 0, "CLASSIFICATION_TYPE": "U", "NORAD_CAT_ID": 54754, "ELEMENT_SET_NO": 999, "REV_AT_EPOCH": 15412, "BSTAR": 1.388e-05, "MEAN_MOTION_DOT": 1.8e-07, "MEAN_MOTION_DDOT": 0}, "tle": {"line1": "1 54754U 22173A   25354.35262999  .00000018  00000+0  13880-4 0  9996", "line2": "2 54754  77.6109 276.7133 0000352  91.6129 268.5063 14.00167948154127"}}, "geometry": {"type": "Point", "coordinates": [-98.73055417520548, -49.61523688979645]}}, {"type": "Feature", "properties": {"norad_id": 57654, "name": "GAOFEN-12 04", "group": "resource", "lat": -73.77296792944225, "lon": 61.78935472070514, "alt_km": 638.3837975627521, "timestamp": "2025-12-20T16:47:35.949316+00:00", "meta": {"OBJECT_NAME": "GAOFEN-12 04", "OBJECT_ID": "2023-123A", "EPOCH": "2025-12-20T12:23:42.423072", "MEAN_MOTION": 14.79720403, "ECCENTRICITY": 0.0001231, "INCLINATION": 97.9127, "RA_OF_ASC_NODE": 270.1558, "ARG_OF_PERICENTER": 77.3561, "MEAN_ANOMALY": 282.7789, "EPHEMERIS_TYPE": 0, "CLASSIFICATION_TYPE": "U", "NORAD_CAT_ID": 57654, "ELEMENT_SET_NO": 999, "REV_AT_EPOCH": 12620, "BSTAR": 0.00013018, "MEAN_MOTION_DOT": 9.27e-06, "MEAN_MOTION_DDOT": 0}, "tle": {"line1": "1 57654U 23123A   25354.51646323  .00000927  00000+0  13018-3 0  9990", "line2": "2 57654  97.9127 270.1558 0001231  77.3561 282.7789 14.79720403126209"}}, "geometry": {"type": "Point", "coordinates": [61.78935472070514, -73.77296792944225]}}, {"type": "Feature", "properties": {"norad_id": 59065, "name": "PARS 1", "group": "resource", "lat": -66.46077994867188, "lon": 128.28649719533578, "alt_km": 457.75510994215165, "timestamp": "2025-12-20T16:47:35.949325+00:00", "meta": {"OBJECT_NAME": "PARS 1", "OBJECT_ID": "2024-039Q", "EPOCH": "2025-12-20T12:36:21.274272", "MEAN_MOTION": 15.41139184, "ECCENTRICITY": 0.0012054, "INCLINATION": 97.4641, "RA_OF_ASC_NODE": 325.6238, "ARG_OF_PERICENTER": 48.6333, "MEAN_ANOMALY": 311.5948, "EPHEMERIS_TYPE": 0, "CLASSIFICATION_TYPE": "U", "NORAD_CAT_ID": 59065, "ELEMENT_SET_NO": 999, "REV_AT_EPOCH": 10108, "BSTAR": 0.00020901, "MEAN_MOTION_DOT": 8.591e-05, "MEAN_MOTION_DDOT": 0}, "tle": {"line1": "1 59065U 24039Q   25354.52524623  .00008591  00000+0  20901-3 0  9998", "line2": "2 59065  97.4641 325.6238 0012054  48.6333 311.5948 15.41139184101084"}}, "geometry": {"type": "Point", "coordinates": [128.28649719533578, -66.46077994867188]}}, {"type": "Feature", "properties": {"norad_id": 59371, "name": "RESURS-P 4", "group": "resource", "lat": 45.90529890454605, "lon": 128.4228612886667, "alt_km": 465.28980471160594, "timestamp": "2025-12-20T16:47:35.949335+00:00", "meta": {"OBJECT_NAME": "RESURS-P 4", "OBJECT_ID": "2024-061A", "EPOCH": "2025-12-20T13:04:39.489600", "MEAN_MOTION": 15.32142551, "ECCENTRICITY": 0.0001004, "INCLINATION": 97.2557, "RA_OF_ASC_NODE": 300.715, "ARG_OF_PERICENTER": 61.9276, "MEAN_ANOMALY": 298.2067, "EPHEMERIS_TYPE": 0, "CLASSIFICATION_TYPE": "U", "NORAD_CAT_ID": 59371, "ELEMENT_SET_NO": 999, "REV_AT_EPOCH": 9640, "BSTAR": 9.5368e-05, "MEAN_MOTION_DOT": 2.883e-05, "MEAN_MOTION_DDOT": 0}, "tle": {"line1": "1 59371U 24061A   25354.54490150  .00002883  00000+0  95368-4 0  9990", "line2": "2 59371  97.2557 300.7150 0001004  61.9276 298.2067 15.32142551 96406"}}, "geometry": {"type": "Point", "coordinates": [128.4228612886667, 45.90529890454605]}}, {"type": "Feature", "properties": {"norad_id": 59625, "name": "LEGION 1", "group": "resource", "lat": -82.09241274902665, "lon": 141.29335618859957, "alt_km": 521.1711732312697, "timestamp": "2025-12-20T16:47:35.949346+00:00", "meta": {"OBJECT_NAME": "LEGION 1", "OBJECT_ID": "2024-081A", "EPOCH": "2025-12-20T10:50:40.667712", "MEAN_MOTION": 15.16549267, "ECCENTRICITY": 0.0003628, "INCLINATION": 97.5209, "RA_OF_ASC_NODE": 69.0248, "ARG_OF_PERICENTER": 282.3847, "MEAN_ANOMALY": 77.698, "EPHEMERIS_TYPE": 0, "CLASSIFICATION_TYPE": "U", "NORAD_CAT_ID": 59625, "ELEMENT_SET_NO": 999, "REV_AT_EPOCH": 9044, "BSTAR": 0.00016608, "MEAN_MOTION_DOT": 3.172e-05, "MEAN_MOTION_DDOT": 0}, "tle": {"line1": "1 59625U 24081A   25354.45185958  .00003172  00000+0  16608-3 0  9992", "line2": "2 59625  97.5209  69.0248 0003628 282.3847  77.6980 15.16549267 90443"}}, "geometry": {"type": "Point", "coordinates": [141.29335618859957, -82.09241274902665]}}, {"type": "Feature", "properties": {"norad_id": 59626, "name": "LEGION 2", "group": "resource", "lat": 82.05343977317504, "lon": -39.469423796579775, "alt_km": 512.5525708413106, "timestamp": "2025-12-20T16:47:35.949356+00:00", "meta": {"OBJECT_NAME": "LEGION 2", "OBJECT_ID": "2024-081B", "EPOCH": "2025-12-20T11:38:08.937888", "MEAN_MOTION": 15.16563441, "ECCENTRICITY": 0.0005632, "INCLINATION": 97.5212, "RA_OF_ASC_NODE": 69.1453, "ARG_OF_PERICENTER": 259.8293, "MEAN_ANOMALY": 100.2305, "EPHEMERIS_TYPE": 0, "CLASSIFICATION_TYPE": "U", "NORAD_CAT_ID": 59626, "ELEMENT_SET_NO": 999, "REV_AT_EPOCH": 9045, "BSTAR": 0.00019565, "MEAN_MOTION_DOT": 3.752e-05, "MEAN_MOTION_DDOT": 0}, "tle": {"line1": "1 59626U 24081B   25354.48482567  .00003752  00000+0  19565-3 0  9991", "line2": "2 59626  97.5212  69.1453 0005632 259.8293 100.2305 15.16563441 90453"}}, "geometry": {"type": "Point", "coordinates": [-39.469423796579775, 82.05343977317504]}}, {"type": "Feature", "properties": {"norad_id": 60182, "name": "ALOS-4 (DAICHI-4)", "group": "resource", "lat": 49.76390893774309, "lon": -81.09414703496418, "alt_km": 625.5991666526843, "timestamp": "2025-12-20T16:47:35.949366+00:00", "meta": {"OBJECT_NAME": "ALOS-4 (DAICHI-4)", "OBJECT_ID": "2024-123A", "EPOCH": "2025-12-20T12:57:49.238208", "MEAN_MOTION": 14.79476342, "ECCENTRICITY": 0.0001393, "INCLINATION": 97.9224, "RA_OF_ASC_NODE": 89.2761, "ARG_OF_PERICENTER": 101.5006, "MEAN_ANOMALY": 258.6362, "EPHEMERIS_TYPE": 0, "CLASSIFICATION_TYPE": "U", "NORAD_CAT_ID": 60182, "ELEMENT_SET_NO": 999, "REV_AT_EPOCH": 7946, "BSTAR": 0.00019649, "MEAN_MOTION_DOT": 1.416e-05, "MEAN_MOTION_DDOT": 0}, "tle": {"line1": "1 60182U 24123A   25354.54015322  .00001416  00000+0  19649-3 0  9993", "line2": "2 60182  97.9224  89.2761 0001393 101.5006 258.6362 14.79476342 79469"}}, "geometry": {"type": "Point", "coordinates": [-81.09414703496418, 49.76390893774309]}}, {"type": "Feature", "properties": {"norad_id": 60452, "name": "LEGION 3", "group": "resource", "lat": -9.021048068351657, "lon": 96.59890850175377, "alt_km": 512.4176685484808, "timestamp": "2025-12-20T16:47:35.949376+00:00", "meta": {"OBJECT_NAME": "LEGION 3", "OBJECT_ID": "2024-146A", "EPOCH": "2025-12-20T11:12:02.797056", "MEAN_MOTION": 15.15836147, "ECCENTRICITY": 0.0015655, "INCLINATION": 45.002, "RA_OF_ASC_NODE": 268.7081, "ARG_OF_PERICENTER": 240.2627, "MEAN_ANOMALY": 119.6694, "EPHEMERIS_TYPE": 0, "CLASSIFICATION_TYPE": "U", "NORAD_CAT_ID": 60452, "ELEMENT_SET_NO": 999, "REV_AT_EPOCH": 7490, "BSTAR": 0.00017169, "MEAN_MOTION_DOT": 3.081e-05, "MEAN_MOTION_DDOT": 0}, "tle": {"line1": "1 60452U 24146A   25354.46669904  .00003081  00000+0  17169-3 0  9995", "line2": "2 60452  45.0020 268.7081 0015655 240.2627 119.6694 15.15836147 74904"}}, "geometry": {"type": "Point", "coordinates": [96.59890850175377, -9.021048068351657]}}, {"type": "Feature", "properties": {"norad_id": 60453, "name": "LEGION 4", "group": "resource", "lat": -8.050158457714408, "lon": -172.64238532264972, "alt_km": 524.9782136741824, "timestamp": "2025-12-20T16:47:35.949387+00:00", "meta": {"OBJECT_NAME": "LEGION 4", "OBJECT_ID": "2024-146B", "EPOCH": "2025-12-20T09:37:35.920416", "MEAN_MOTION": 15.15898192, "ECCENTRICITY": 0.0008728, "INCLINATION": 45.0393, "RA_OF_ASC_NODE": 0.8332, "ARG_OF_PERICENTER": 352.3062, "MEAN_ANOMALY": 7.7682, "EPHEMERIS_TYPE": 0, "CLASSIFICATION_TYPE": "U", "NORAD_CAT_ID": 60453, "ELEMENT_SET_NO": 999, "REV_AT_EPOCH": 7374, "BSTAR": 0.00019574, "MEAN_MOTION_DOT": 3.551e-05, "MEAN_MOTION_DDOT": 0}, "tle": {"line1": "1 60453U 24146B   25354.40111019  .00003551  00000+0  19574-3 0  9993", "line2": "2 60453  45.0393   0.8332 0008728 352.3062   7.7682 15.15898192 73746"}}, "geometry": {"type": "Point", "coordinates": [-172.64238532264972, -8.050158457714408]}}]}